{"type":"FeatureCollection","features":[{"type":"Feature","geometry":{"type":"Point","coordinates":[-44.45779500399994,-3.991632260868731]},"properties":{"id":"ID_00001","municipio":"São Mateus do Maranhão","agrupamento":"Codó","classificacao_espacial":"within","tipo_destinacao":"Destinação Irregular (Lixões)","proximo_cidade":"Sim","distancia_cidade_km":"3","pessoas_proximas":"Sim","pessoas_trabalhando":"Sim","descricao_atividade":"Cantando lixo","recursos_naturais_proximos":"Próximo a vegetação natural","outros_elementos_proximos":"Embaixo de um linhão de energias","data_registro":"8/5/2025 2:18:01.172 AM"}},{"type":"Feature","geometry":{"type":"Point","coordinates":[-44.57926358099996,-4.595942389849032]},"properties":{"id":"ID_00002","municipio":"Pedreiras","agrupamento":"Codó","classificacao_espacial":"within","tipo_destinacao":"Destinação Irregular (Lixões)","proximo_cidade":"Sim","distancia_cidade_km":"3","pessoas_proximas":"Sim","pessoas_trabalhando":"Não","descricao_atividade":"Só queima das de resíduos","recursos_naturais_proximos":"Próxima a vegetação","outros_elementos_proximos":"Não","data_registro":"8/5/2025 2:18:05.926 AM"}},{"type":"Feature","geometry":{"type":"Point","coordinates":[-44.63901523499993,-4.584418488849426]},"properties":{"id":"ID_00003","municipio":"Pedreiras","agrupamento":"Codó","classificacao_espacial":"within","tipo_destinacao":"Destinação Irregular (Lixões)","proximo_cidade":"Não","distancia_cidade_km":"6","pessoas_proximas":"Sim","pessoas_trabalhando":"Sim","descricao_atividade":"Catando lixo","recursos_naturais_proximos":"Vegetação e rios","outros_elementos_proximos":"Proximo a empresas","data_registro":"8/5/2025 2:18:09.996 AM"}},{"type":"Feature","geometry":{"type":"Point","coordinates":[-42.85293613599998,-5.249872294827763]},"properties":{"id":"ID_00004","municipio":"Timon","agrupamento":"Nazária (PI)","classificacao_espacial":"within","tipo_destinacao":"Destinação Irregular (Lixões)","proximo_cidade":"Não","distancia_cidade_km":"0","pessoas_proximas":"Sim","pessoas_trabalhando":"Sim","descricao_atividade":"Estão trabalhando em máquinas de grande porte e não catando","recursos_naturais_proximos":"Vegetação","outros_elementos_proximos":"Próximo a empreedimento","data_registro":"8/5/2025 9:41:28.356 PM"}},{"type":"Feature","geometry":{"type":"Point","coordinates":[-43.12185367999996,-5.661921261814456]},"properties":{"id":"ID_00005","municipio":"Parnarama","agrupamento":"Nazária (PI)","classificacao_espacial":"within","tipo_destinacao":"Destinação Irregular (Lixões)","proximo_cidade":"Sim","distancia_cidade_km":"4","pessoas_proximas":"Sim","pessoas_trabalhando":"Não","descricao_atividade":"Null","recursos_naturais_proximos":"Próximo a vegetação","outros_elementos_proximos":"Null","data_registro":"8/5/2025 9:41:45.118 PM"}},{"type":"Feature","geometry":{"type":"Point","coordinates":[-43.23276510499994,-5.516448784819159]},"properties":{"id":"ID_00006","municipio":"Matões","agrupamento":"Nazária (PI)","classificacao_espacial":"within","tipo_destinacao":"Destinação Irregular (Lixões)","proximo_cidade":"Sim","distancia_cidade_km":"3","pessoas_proximas":"Sim","pessoas_trabalhando":"Sim","descricao_atividade":"Null","recursos_naturais_proximos":"Água e vegetação","outros_elementos_proximos":"Null","data_registro":"8/5/2025 9:41:53.784 PM"}},{"type":"Feature","geometry":{"type":"Point","coordinates":[-43.34716069499996,-4.833956085841279]},"properties":{"id":"ID_00007","municipio":"Caxias","agrupamento":"Codó","classificacao_espacial":"within","tipo_destinacao":"Destinação Irregular (Lixões)","proximo_cidade":"Sim","distancia_cidade_km":"1","pessoas_proximas":"Sim","pessoas_trabalhando":"Sim","descricao_atividade":"Tem um motorista de caminhão caçamba e também catadores com crianças trabalhando na coleta de resíduos","recursos_naturais_proximos":"Próximo a uma área não tão vegetada","outros_elementos_proximos":"Próximo a casa e comércios","data_registro":"8/5/2025 9:42:00.946 PM"}},{"type":"Feature","geometry":{"type":"Point","coordinates":[-43.04780779199996,-4.260607052859948]},"properties":{"id":"ID_00008","municipio":"Coelho Neto","agrupamento":"Codó","classificacao_espacial":"within","tipo_destinacao":"Destinação Irregular (Lixões)","proximo_cidade":"Sim","distancia_cidade_km":"3","pessoas_proximas":"Sim","pessoas_trabalhando":"Sim","descricao_atividade":"Catando lixo de forma manual","recursos_naturais_proximos":"Vegetação e drenagem","outros_elementos_proximos":"Não","data_registro":"8/6/2025 8:57:36.409 PM"}},{"type":"Feature","geometry":{"type":"Point","coordinates":[-43.28938339799998,-4.130476405864208]},"properties":{"id":"ID_00009","municipio":"Afonso Cunha","agrupamento":"Codó","classificacao_espacial":"within","tipo_destinacao":"Destinação Irregular (Lixões)","proximo_cidade":"Não","distancia_cidade_km":"Null","pessoas_proximas":"Sim","pessoas_trabalhando":"Não","descricao_atividade":"Null","recursos_naturais_proximos":"Vegetação","outros_elementos_proximos":"Próximo a quadras de esporte e casas","data_registro":"8/6/2025 8:57:47.840 PM"}},{"type":"Feature","geometry":{"type":"Point","coordinates":[-43.49159925599997,-4.636965979847701]},"properties":{"id":"ID_00010","municipio":"Aldeias Altas","agrupamento":"Codó","classificacao_espacial":"within","tipo_destinacao":"Destinação Irregular (Lixões)","proximo_cidade":"Sim","distancia_cidade_km":"4","pessoas_proximas":"Sim","pessoas_trabalhando":"Sim","descricao_atividade":"Pessoal ligadas a limpeza pública","recursos_naturais_proximos":"Null","outros_elementos_proximos":"Null","data_registro":"8/6/2025 8:57:57.407 PM"}},{"type":"Feature","geometry":{"type":"Point","coordinates":[-43.76459179499994,-5.081068714833259]},"properties":{"id":"ID_00011","municipio":"São João do Soter","agrupamento":"Codó","classificacao_espacial":"within","tipo_destinacao":"Destinação Irregular (Lixões)","proximo_cidade":"Não","distancia_cidade_km":"Null","pessoas_proximas":"Sim","pessoas_trabalhando":"Não","descricao_atividade":"Null","recursos_naturais_proximos":"Vegetação","outros_elementos_proximos":"Null","data_registro":"8/6/2025 8:58:05.163 PM"}},{"type":"Feature","geometry":{"type":"Point","coordinates":[-43.90305076899995,-4.483552156852702]},"properties":{"id":"ID_00012","municipio":"Codó","agrupamento":"Codó","classificacao_espacial":"within","tipo_destinacao":"Destinação Irregular (Lixões)","proximo_cidade":"Sim","distancia_cidade_km":"2","pessoas_proximas":"Sim","pessoas_trabalhando":"Sim","descricao_atividade":"A catadores trabalhando na coleta seletiva","recursos_naturais_proximos":"Próximo a vegetação e provavelmente drenagens","outros_elementos_proximos":"Somente casas","data_registro":"8/7/2025 11:45:10.853 PM"}},{"type":"Feature","geometry":{"type":"Point","coordinates":[-43.89265165499995,-4.20631644286171]},"properties":{"id":"ID_00013","municipio":"Timbiras","agrupamento":"Codó","classificacao_espacial":"within","tipo_destinacao":"Destinação Irregular (Lixões)","proximo_cidade":"Não","distancia_cidade_km":"Null","pessoas_proximas":"Sim","pessoas_trabalhando":"Não","descricao_atividade":"Null","recursos_naturais_proximos":"Próximo a vegetação","outros_elementos_proximos":"Null","data_registro":"8/7/2025 11:45:12.613 PM"}},{"type":"Feature","geometry":{"type":"Point","coordinates":[-44.11254348199998,-4.149564638863576]},"properties":{"id":"ID_00014","municipio":"Coroatá","agrupamento":"Codó","classificacao_espacial":"within","tipo_destinacao":"Destinação Irregular (Lixões)","proximo_cidade":"Sim","distancia_cidade_km":"2","pessoas_proximas":"Sim","pessoas_trabalhando":"Sim","descricao_atividade":"Pessoas estão catando","recursos_naturais_proximos":"Vegetação natural","outros_elementos_proximos":"Null","data_registro":"8/7/2025 11:45:13.739 PM"}},{"type":"Feature","geometry":{"type":"Point","coordinates":[-47.02938071299997,-6.458338261788747]},"properties":{"id":"ID_00015","municipio":"São João do Paraíso","agrupamento":"Imperatriz","classificacao_espacial":"within","tipo_destinacao":"Destinação Irregular (Lixões)","proximo_cidade":"Null","distancia_cidade_km":"Null","pessoas_proximas":"Null","pessoas_trabalhando":"Null","descricao_atividade":"Null","recursos_naturais_proximos":"Null","outros_elementos_proximos":"Null","data_registro":"10/24/2025 1:21:59.592 PM"}},{"type":"Feature","geometry":{"type":"Point","coordinates":[-46.64721806499995,-6.046407976802019]},"properties":{"id":"ID_00016","municipio":"Sítio Novo","agrupamento":"Imperatriz","classificacao_espacial":"within","tipo_destinacao":"Destinação Irregular (Lixões)","proximo_cidade":"Null","distancia_cidade_km":"Null","pessoas_proximas":"Null","pessoas_trabalhando":"Null","descricao_atividade":"Null","recursos_naturais_proximos":"Null","outros_elementos_proximos":"Null","data_registro":"10/24/2025 1:22:12.707 PM"}},{"type":"Feature","geometry":{"type":"Point","coordinates":[-46.67934310799996,-5.63528510881528]},"properties":{"id":"ID_00017","municipio":"Amarante do Maranhão","agrupamento":"Imperatriz","classificacao_espacial":"within","tipo_destinacao":"Destinação Irregular (Lixões)","proximo_cidade":"Null","distancia_cidade_km":"Null","pessoas_proximas":"Null","pessoas_trabalhando":"Null","descricao_atividade":"Null","recursos_naturais_proximos":"Null","outros_elementos_proximos":"Null","data_registro":"10/24/2025 1:22:36.213 PM"}},{"type":"Feature","geometry":{"type":"Point","coordinates":[-46.80979010699997,-4.489138377852507]},"properties":{"id":"ID_00018","municipio":"Bom Jesus das Selvas","agrupamento":"Imperatriz","classificacao_espacial":"within","tipo_destinacao":"Destinação Irregular (Lixões)","proximo_cidade":"Nao","distancia_cidade_km":"5","pessoas_proximas":"Sim","pessoas_trabalhando":"Sim","descricao_atividade":"Catadores","recursos_naturais_proximos":"Sim","outros_elementos_proximos":"Null","data_registro":"3/12/2026 3:06:22.550 PM"}},{"type":"Feature","geometry":{"type":"Point","coordinates":[-45.98896622899997,-4.832404090841328]},"properties":{"id":"ID_00019","municipio":"Arame","agrupamento":"Imperatriz","classificacao_espacial":"within","tipo_destinacao":"Destinação Irregular (Lixões)","proximo_cidade":"Nao","distancia_cidade_km":"15","pessoas_proximas":"Nao","pessoas_trabalhando":"Sim","descricao_atividade":"Catadores","recursos_naturais_proximos":"Sim","outros_elementos_proximos":"Sim","data_registro":"3/12/2026 3:06:28.526 PM"}},{"type":"Feature","geometry":{"type":"Point","coordinates":[-47.54165630299997,-4.926903739838252]},"properties":{"id":"ID_00020","municipio":"Açailândia","agrupamento":"Imperatriz","classificacao_espacial":"within","tipo_destinacao":"Destinação Irregular (Lixões)","proximo_cidade":"Nao","distancia_cidade_km":"8","pessoas_proximas":"Nao","pessoas_trabalhando":"Não","descricao_atividade":"Null","recursos_naturais_proximos":"Natural","outros_elementos_proximos":"Null","data_registro":"3/12/2026 3:06:37.215 PM"}},{"type":"Feature","geometry":{"type":"Point","coordinates":[-47.51722528499994,-4.479381970852829]},"properties":{"id":"ID_00021","municipio":"Itinga do Maranhão","agrupamento":"Imperatriz","classificacao_espacial":"within","tipo_destinacao":"Destinação Irregular (Lixões)","proximo_cidade":"Sim","distancia_cidade_km":"5","pessoas_proximas":"Sim","pessoas_trabalhando":"5","descricao_atividade":"Catadores","recursos_naturais_proximos":"Nao","outros_elementos_proximos":"Nao","data_registro":"3/12/2026 3:06:40.833 PM"}},{"type":"Feature","geometry":{"type":"Point","coordinates":[-47.40027800199994,-5.12880784483168]},"properties":{"id":"ID_00022","municipio":"São Francisco do Brejão","agrupamento":"Imperatriz","classificacao_espacial":"within","tipo_destinacao":"Destinação Irregular (Lixões)","proximo_cidade":"Não","distancia_cidade_km":"5","pessoas_proximas":"Não","pessoas_trabalhando":"Sim","descricao_atividade":"Moradores e a linha de ferro","recursos_naturais_proximos":"Null","outros_elementos_proximos":"Null","data_registro":"3/12/2026 3:06:46.462 PM"}},{"type":"Feature","geometry":{"type":"Point","coordinates":[-47.84081551299994,-5.196648397829535]},"properties":{"id":"ID_00023","municipio":"Cidelândia","agrupamento":"Imperatriz","classificacao_espacial":"within","tipo_destinacao":"Destinação Irregular (Lixões)","proximo_cidade":"Sim","distancia_cidade_km":"3","pessoas_proximas":"1","pessoas_trabalhando":"1","descricao_atividade":"Catadores","recursos_naturais_proximos":"Null","outros_elementos_proximos":"Null","data_registro":"3/12/2026 3:07:01.440 PM"}},{"type":"Feature","geometry":{"type":"Point","coordinates":[-48.45213619499998,-5.100797382832599]},"properties":{"id":"ID_00024","municipio":"São Pedro da Água Branca","agrupamento":"Imperatriz","classificacao_espacial":"nearest","tipo_destinacao":"Destinação Irregular (Lixões)","proximo_cidade":"Sim","distancia_cidade_km":"5","pessoas_proximas":"Sim","pessoas_trabalhando":"Sim","descricao_atividade":"Pessoas do pp","recursos_naturais_proximos":"Null","outros_elementos_proximos":"Null","data_registro":"3/12/2026 3:07:07.957 PM"}},{"type":"Feature","geometry":{"type":"Point","coordinates":[-47.36339569999996,-5.55304777281795]},"properties":{"id":"ID_00025","municipio":"Davinópolis","agrupamento":"Imperatriz","classificacao_espacial":"within","tipo_destinacao":"Destinação Irregular (Lixões)","proximo_cidade":"Sim","distancia_cidade_km":"4","pessoas_proximas":"Sim","pessoas_trabalhando":"Sim","descricao_atividade":"Tratoristas arrumando o acesso","recursos_naturais_proximos":"Sim uma drenagem e uma área alagada","outros_elementos_proximos":"Recursos hídricos","data_registro":"3/12/2026 3:07:15.935 PM"}},{"type":"Feature","geometry":{"type":"Point","coordinates":[-47.34567678099996,-5.763162022811162]},"properties":{"id":"ID_00026","municipio":"Governador Edison Lobão","agrupamento":"Imperatriz","classificacao_espacial":"within","tipo_destinacao":"Destinação Irregular (Lixões)","proximo_cidade":"Nao","distancia_cidade_km":"Null","pessoas_proximas":"Null","pessoas_trabalhando":"Null","descricao_atividade":"Null","recursos_naturais_proximos":"Null","outros_elementos_proximos":"Null","data_registro":"3/16/2026 1:36:08.053 PM"}},{"type":"Feature","geometry":{"type":"Point","coordinates":[-47.07485010899994,-5.828081904809094]},"properties":{"id":"ID_00027","municipio":"Montes Altos","agrupamento":"Imperatriz","classificacao_espacial":"within","tipo_destinacao":"Destinação Irregular (Lixões)","proximo_cidade":"Sim","distancia_cidade_km":"1","pessoas_proximas":"Muitas o lixão e dentro da cidade","pessoas_trabalhando":"Nao","descricao_atividade":"Null","recursos_naturais_proximos":"Áreas vegetadas","outros_elementos_proximos":"Aparelhos públicos","data_registro":"3/16/2026 1:36:12.468 PM"}},{"type":"Feature","geometry":{"type":"Point","coordinates":[-47.39788782399995,-5.470585946820637]},"properties":{"id":"ID_00028","municipio":"João Lisboa","agrupamento":"Imperatriz","classificacao_espacial":"within","tipo_destinacao":"Destinação Irregular (Lixões)","proximo_cidade":"Sim","distancia_cidade_km":"3","pessoas_proximas":"Sim","pessoas_trabalhando":"Nao","descricao_atividade":"Null","recursos_naturais_proximos":"Null","outros_elementos_proximos":"Null","data_registro":"3/16/2026 1:36:15.478 PM"}},{"type":"Feature","geometry":{"type":"Point","coordinates":[-47.25910912999997,-5.431292875821877]},"properties":{"id":"ID_00029","municipio":"Senador La Rocque","agrupamento":"Imperatriz","classificacao_espacial":"within","tipo_destinacao":"Destinação Irregular (Lixões)","proximo_cidade":"Nao","distancia_cidade_km":"Null","pessoas_proximas":"Null","pessoas_trabalhando":"Null","descricao_atividade":"Null","recursos_naturais_proximos":"Null","outros_elementos_proximos":"Null","data_registro":"3/16/2026 1:36:20.487 PM"}},{"type":"Feature","geometry":{"type":"Point","coordinates":[-47.00541255399997,-5.613178253816]},"properties":{"id":"ID_00030","municipio":"Buritirana","agrupamento":"Imperatriz","classificacao_espacial":"within","tipo_destinacao":"Destinação Irregular (Lixões)","proximo_cidade":"Null","distancia_cidade_km":"Null","pessoas_proximas":"Null","pessoas_trabalhando":"Null","descricao_atividade":"Null","recursos_naturais_proximos":"Null","outros_elementos_proximos":"Null","data_registro":"3/16/2026 1:36:24.073 PM"}},{"type":"Feature","geometry":{"type":"Point","coordinates":[-46.99267288622087,-6.158694925434105]},"properties":{"id":null,"municipio":"Lajeado Novo","agrupamento":"Imperatriz","classificacao_espacial":"within"}},{"type":"Feature","geometry":{"type":"Point","coordinates":[-48.10489139537974,-5.168464550160819]},"properties":{"id":null,"municipio":"Vila Nova dos Martírios","agrupamento":"Imperatriz","classificacao_espacial":"within"}},{"type":"Feature","geometry":{"type":"Point","coordinates":[-47.5083606090013,-5.423344407744602]},"properties":{"id":null,"municipio":"Imperatriz","agrupamento":"Imperatriz","classificacao_espacial":"within"}},{"type":"Feature","geometry":{"type":"Point","coordinates":[-47.53845651043287,-5.430372969086467]},"properties":{"id":null,"municipio":"Imperatriz","agrupamento":"Imperatriz","classificacao_espacial":"within"}},{"type":"Feature","geometry":{"type":"Point","coordinates":[-46.37753203483387,-4.341692111368027]},"properties":{"id":null,"municipio":"Buriticupu","agrupamento":"Imperatriz","classificacao_espacial":"within"}},{"type":"Feature","geometry":{"type":"Point","coordinates":[-47.40855078732112,-5.943132928355787]},"properties":{"id":null,"municipio":"Ribamar Fiquene","agrupamento":"Imperatriz","classificacao_espacial":"within"}},{"type":"Feature","geometry":{"type":"Point","coordinates":[-47.43633779847448,-6.596595193342043]},"properties":{"id":null,"municipio":"Estreito","agrupamento":"Imperatriz","classificacao_espacial":"within"}},{"type":"Feature","geometry":{"type":"Point","coordinates":[-47.02848482741685,-6.45904995877702]},"properties":{"id":null,"municipio":"São João do Paraíso","agrupamento":"Imperatriz","classificacao_espacial":"within"}},{"type":"Feature","geometry":{"type":"Point","coordinates":[-47.34265319129651,-6.160755015194671]},"properties":{"id":null,"municipio":"Campestre do Maranhão","agrupamento":"Imperatriz","classificacao_espacial":"within"}},{"type":"Feature","geometry":{"type":"Point","coordinates":[-47.33861770340109,-6.31817058989116]},"properties":{"id":null,"municipio":"Porto Franco","agrupamento":"Imperatriz","classificacao_espacial":"within"}}]}