{"type":"FeatureCollection","features":[{"type":"Feature","geometry":{"type":"Point","coordinates":[-44.18001145430308,-2.551581846794554]},"properties":{"descricao":"Estação de Transbordo da Pirâmide","tipologia":"Estação","municipio":"Paço do Lumiar","agrupamento":"Titara","classificacao_espacial":"within"}},{"type":"Feature","geometry":{"type":"Point","coordinates":[-44.20587990077385,-2.518322871562155]},"properties":{"descricao":"Estação de Transbordo do Parque Vitória","tipologia":"Estação","municipio":"São José de Ribamar","agrupamento":"Titara","classificacao_espacial":"within"}},{"type":"Feature","geometry":{"type":"Point","coordinates":[-44.238886922143976,-2.649365055810907]},"properties":{"descricao":"Estação de Transbordo da Ribeira","tipologia":"Estação","municipio":"São Luís","agrupamento":"Titara","classificacao_espacial":"within"}},{"type":"Feature","geometry":{"type":"Point","coordinates":[-42.82836578833363,-2.754593611135912]},"properties":{"descricao":"Estação de Transbordo Barreirinhas","tipologia":"Estação","municipio":"Barreirinhas","agrupamento":"Titara","classificacao_espacial":"within"}},{"type":"Feature","geometry":{"type":"Point","coordinates":[-44.35242378283138,-3.397493926701866]},"properties":{"descricao":"Estação de Transbordo Itapecuru Mirim","tipologia":"Estação","municipio":"Itapecuru Mirim","agrupamento":"Titara","classificacao_espacial":"within"}},{"type":"Feature","geometry":{"type":"Point","coordinates":[-42.753885229196996,-3.679736239215097]},"properties":{"descricao":"Estação de Transbordo Brejo","tipologia":"Estação","municipio":"Brejo","agrupamento":"Buriti dos Lopes (PI)","classificacao_espacial":"within"}},{"type":"Feature","geometry":{"type":"Point","coordinates":[-44.246464873923834,-2.938504058816343]},"properties":{"descricao":"Aterro Sanitário Titara","tipologia":"Aterro","municipio":"Rosário","agrupamento":"Titara","classificacao_espacial":"within"}},{"type":"Feature","geometry":{"type":"Point","coordinates":[-43.88620368297282,-4.460841004208794]},"properties":{"descricao":"Aterro Sanitário Codó","tipologia":"Aterro","municipio":"Codó","agrupamento":"Codó","classificacao_espacial":"within"}},{"type":"Feature","geometry":{"type":"Point","coordinates":[-44.49253635367764,-5.296833179821983]},"properties":{"descricao":"Estação de Transbordo Presidente Dutra","tipologia":"Estação","municipio":"Presidente Dutra","agrupamento":"Colinas","classificacao_espacial":"within"}},{"type":"Feature","geometry":{"type":"Point","coordinates":[-45.2494836513871,-5.505886613253717]},"properties":{"descricao":"Estação de Transbordo Barra do Corda","tipologia":"Estação","municipio":"Barra do Corda","agrupamento":"Colinas","classificacao_espacial":"within"}},{"type":"Feature","geometry":{"type":"Point","coordinates":[-44.079431485953506,-6.602119551486084]},"properties":{"descricao":"Estação de Transbordo Pastos Bons","tipologia":"Estação","municipio":"Pastos Bons","agrupamento":"Colinas","classificacao_espacial":"within"}},{"type":"Feature","geometry":{"type":"Point","coordinates":[-44.247795650242665,-6.02805518178263]},"properties":{"descricao":"Aterro Sanitário Colinas","tipologia":"Aterro","municipio":"Colinas","agrupamento":"Colinas","classificacao_espacial":"within"}},{"type":"Feature","geometry":{"type":"Point","coordinates":[-46.041637392562784,-7.518903994364242]},"properties":{"descricao":"Aterro Sanitário de Balsas","tipologia":"Aterro","municipio":"Balsas","agrupamento":"Balsas","classificacao_espacial":"within"}},{"type":"Feature","geometry":{"type":"Point","coordinates":[-46.62683890166669,-7.367601284404468]},"properties":{"descricao":"Estação de Transbordo Riachão","tipologia":"Estação","municipio":"Riachão","agrupamento":"Balsas","classificacao_espacial":"within"}},{"type":"Feature","geometry":{"type":"Point","coordinates":[-46.17642571339103,-6.961141218772741]},"properties":{"descricao":"Estação de Transbordo Fortaleza dos Nogueiras","tipologia":"Estação","municipio":"Fortaleza dos Nogueiras","agrupamento":"Balsas","classificacao_espacial":"within"}},{"type":"Feature","geometry":{"type":"Point","coordinates":[-45.47681759512844,-7.023863159816146]},"properties":{"descricao":"Estação de Transbordo de São Raimundo das Mangabeiras","tipologia":"Estação","municipio":"São Raimundo das Mangabeiras","agrupamento":"Balsas","classificacao_espacial":"within"}},{"type":"Feature","geometry":{"type":"Point","coordinates":[-45.745607615262585,-8.479342890837756]},"properties":{"descricao":"Estação de Transbordo Tasso Fragoso","tipologia":"Estação","municipio":"Tasso Fragoso","agrupamento":"Balsas","classificacao_espacial":"within"}},{"type":"Feature","geometry":{"type":"Point","coordinates":[-47.46748721859908,-5.513979597301009]},"properties":{"descricao":"Aterro Sanitário de Imperatriz","tipologia":"Aterro","municipio":"Imperatriz","agrupamento":"Imperatriz","classificacao_espacial":"within"}},{"type":"Feature","geometry":{"type":"Point","coordinates":[-47.36303825666413,-5.751119855342171]},"properties":{"descricao":"Estação de Transbordo Governador Edison Lobão","tipologia":"Estação","municipio":"Governador Edison Lobão","agrupamento":"Imperatriz","classificacao_espacial":"within"}},{"type":"Feature","geometry":{"type":"Point","coordinates":[-46.850390763768,-4.482893032367975]},"properties":{"descricao":"Estação de Transbordo Bom Jesus das Selvas","tipologia":"Estação","municipio":"Bom Jesus das Selvas","agrupamento":"Imperatriz","classificacao_espacial":"within"}},{"type":"Feature","geometry":{"type":"Point","coordinates":[-45.38669798882289,-3.660981649479301]},"properties":{"descricao":"Aterro Sanitário de Santa Inês","tipologia":"Aterro","municipio":"Santa Inês","agrupamento":"Santa Inês","classificacao_espacial":"within"}},{"type":"Feature","geometry":{"type":"Point","coordinates":[-45.65279828269669,-3.281011999795299]},"properties":{"descricao":"Estação de Transbordo de Zé Doca","tipologia":"Estação","municipio":"Zé Doca","agrupamento":"Santa Inês","classificacao_espacial":"within"}},{"type":"Feature","geometry":{"type":"Point","coordinates":[-45.11964468583759,-4.13686972586226]},"properties":{"descricao":"Estação de Transbordo de Olho d'Água das Cunhãs","tipologia":"Estação","municipio":"Olho d'Água das Cunhãs","agrupamento":"Santa Inês","classificacao_espacial":"within"}},{"type":"Feature","geometry":{"type":"Point","coordinates":[-45.137408941725816,-4.559157224561248]},"properties":{"descricao":"Estação de Transbordo de Lago da Pedra","tipologia":"Estação","municipio":"Lago da Pedra","agrupamento":"Santa Inês","classificacao_espacial":"within"}},{"type":"Feature","geometry":{"type":"Point","coordinates":[-45.08428431463728,-2.529656413665553]},"properties":{"descricao":"Aterro Sanitário de Pinheiro","tipologia":"Aterro","municipio":"Pinheiro","agrupamento":"Pinheiro","classificacao_espacial":"within"}},{"type":"Feature","geometry":{"type":"Point","coordinates":[-44.875292233567166,-2.899923835033861]},"properties":{"descricao":"Estação de Transbordo de São Vicente de Ferrer","tipologia":"Estação","municipio":"São Vicente Ferrer","agrupamento":"Pinheiro","classificacao_espacial":"within"}},{"type":"Feature","geometry":{"type":"Point","coordinates":[-44.782356664363604,-2.067001904326362]},"properties":{"descricao":"Estação de Transbordo de Mirinzal","tipologia":"Estação","municipio":"Mirinzal","agrupamento":"Pinheiro","classificacao_espacial":"within"}},{"type":"Feature","geometry":{"type":"Point","coordinates":[-45.89201683472309,-2.129164974781812]},"properties":{"descricao":"Estação de Transbordo de Governador Nunes Freire","tipologia":"Estação","municipio":"Governador Nunes Freire","agrupamento":"Pinheiro","classificacao_espacial":"within"}},{"type":"Feature","geometry":{"type":"Point","coordinates":[-43.34964315742384,-4.878675982547994]},"properties":{"descricao":"Estação de Transbordo Caxias","tipologia":"Estação","municipio":"Caxias","agrupamento":"Codó","classificacao_espacial":"within"}}]}