{"type":"FeatureCollection","features":[{"type":"Feature","geometry":{"type":"Point","coordinates":[-44.86819165765197,-1.8230475166982754]},"properties":{"municipio":"Cururupu","geocodigo":"2103703","agrupamento":"Pinheiro"}},{"type":"Feature","geometry":{"type":"Point","coordinates":[-46.12337942715601,-2.1409333054642428]},"properties":{"municipio":"Centro Novo do Maranhão","geocodigo":"2103174","agrupamento":"Pinheiro"}},{"type":"Feature","geometry":{"type":"Point","coordinates":[-46.03870549834545,-2.4505207413307892]},"properties":{"municipio":"Centro do Guilherme","geocodigo":"2103158","agrupamento":"Pinheiro"}},{"type":"Feature","geometry":{"type":"Point","coordinates":[-45.66330078375571,-3.9672954040178947]},"properties":{"municipio":"Santa Luzia","geocodigo":"2110005","agrupamento":"Santa Inês"}},{"type":"Feature","geometry":{"type":"Point","coordinates":[-46.01886898396193,-1.2012665847172261]},"properties":{"municipio":"Carutapera","geocodigo":"2102903","agrupamento":"Pinheiro"}},{"type":"Feature","geometry":{"type":"Point","coordinates":[-44.29975203207503,-5.153919476754132]},"properties":{"municipio":"Gonçalves Dias","geocodigo":"2104404","agrupamento":"Codó"}},{"type":"Feature","geometry":{"type":"Point","coordinates":[-45.60754131497806,-3.5448540396590364]},"properties":{"municipio":"Bom Jardim","geocodigo":"2102002","agrupamento":"Santa Inês"}},{"type":"Feature","geometry":{"type":"Point","coordinates":[-45.01202709802062,-3.3210800119579824]},"properties":{"municipio":"Cajari","geocodigo":"2102507","agrupamento":"Pinheiro"}},{"type":"Feature","geometry":{"type":"Point","coordinates":[-45.18918188670061,-3.639824510733319]},"properties":{"municipio":"Igarapé do Meio","geocodigo":"2105153","agrupamento":"Santa Inês"}},{"type":"Feature","geometry":{"type":"Point","coordinates":[-45.7735304271257,-1.4121438379704037]},"properties":{"municipio":"Godofredo Viana","geocodigo":"2104305","agrupamento":"Pinheiro"}},{"type":"Feature","geometry":{"type":"Point","coordinates":[-45.89136526620175,-2.1290240819832484]},"properties":{"municipio":"Governador Nunes Freire","geocodigo":"2104677","agrupamento":"Pinheiro"}},{"type":"Feature","geometry":{"type":"Point","coordinates":[-45.67129464754829,-3.426863070744075]},"properties":{"municipio":"Governador Newton Bello","geocodigo":"2104651","agrupamento":"Santa Inês"}},{"type":"Feature","geometry":{"type":"Point","coordinates":[-45.72774265894709,-1.4519006905517162]},"properties":{"municipio":"Cândido Mendes","geocodigo":"2102606","agrupamento":"Pinheiro"}},{"type":"Feature","geometry":{"type":"Point","coordinates":[-46.307536032072775,-1.7995761475935046]},"properties":{"municipio":"Boa Vista do Gurupi","geocodigo":"2101970","agrupamento":"Pinheiro"}},{"type":"Feature","geometry":{"type":"Point","coordinates":[-43.83535339388027,-5.837641953547557]},"properties":{"municipio":"Buriti Bravo","geocodigo":"2102309","agrupamento":"Colinas"}},{"type":"Feature","geometry":{"type":"Point","coordinates":[-44.67205279396832,-2.873741018100467]},"properties":{"municipio":"Cajapió","geocodigo":"2102408","agrupamento":"Pinheiro"}},{"type":"Feature","geometry":{"type":"Point","coordinates":[-44.53526141448573,-1.9969049358974227]},"properties":{"municipio":"Cedral","geocodigo":"2103109","agrupamento":"Pinheiro"}},{"type":"Feature","geometry":{"type":"Point","coordinates":[-44.24442032759648,-5.321937094304955]},"properties":{"municipio":"Governador Eugênio Barros","geocodigo":"2104602","agrupamento":"Colinas"}},{"type":"Feature","geometry":{"type":"Point","coordinates":[-44.332787973029795,-5.408372838323445]},"properties":{"municipio":"Graça Aranha","geocodigo":"2104701","agrupamento":"Colinas"}},{"type":"Feature","geometry":{"type":"Point","coordinates":[-45.032382664839666,-3.0987011690157003]},"properties":{"municipio":"Matinha","geocodigo":"2106508","agrupamento":"Pinheiro"}},{"type":"Feature","geometry":{"type":"Point","coordinates":[-45.78912995024452,-5.14265357011251]},"properties":{"municipio":"Itaipava do Grajaú","geocodigo":"2105351","agrupamento":"Colinas"}},{"type":"Feature","geometry":{"type":"Point","coordinates":[-45.823706188928625,-2.3760053510541708]},"properties":{"municipio":"Presidente Médici","geocodigo":"2109239","agrupamento":"Pinheiro"}},{"type":"Feature","geometry":{"type":"Point","coordinates":[-45.08864840569479,-2.527013051106719]},"properties":{"municipio":"Pinheiro","geocodigo":"2108603","agrupamento":"Pinheiro"}},{"type":"Feature","geometry":{"type":"Point","coordinates":[-45.17068685298459,-3.891486692161062]},"properties":{"municipio":"Pio XII","geocodigo":"2108702","agrupamento":"Santa Inês"}},{"type":"Feature","geometry":{"type":"Point","coordinates":[-44.76129643372905,-4.62939108867287]},"properties":{"municipio":"Bernardo do Mearim","geocodigo":"2101939","agrupamento":"Santa Inês"}},{"type":"Feature","geometry":{"type":"Point","coordinates":[-44.89700256458074,-3.837904211317977]},"properties":{"municipio":"Conceição do Lago-Açu","geocodigo":"2103554","agrupamento":"Santa Inês"}},{"type":"Feature","geometry":{"type":"Point","coordinates":[-47.46574176891214,-7.333342181117638]},"properties":{"municipio":"Carolina","geocodigo":"2102804","agrupamento":"Balsas"}},{"type":"Feature","geometry":{"type":"Point","coordinates":[-46.17813596298144,-6.962321469605247]},"properties":{"municipio":"Fortaleza dos Nogueiras","geocodigo":"2104107","agrupamento":"Balsas"}},{"type":"Feature","geometry":{"type":"Point","coordinates":[-47.36243055109766,-5.749477031753634]},"properties":{"municipio":"Governador Edison Lobão","geocodigo":"2104552","agrupamento":"Imperatriz"}},{"type":"Feature","geometry":{"type":"Point","coordinates":[-47.03737258563217,-6.189882120791791]},"properties":{"municipio":"Lajeado Novo","geocodigo":"2105989","agrupamento":"Imperatriz"}},{"type":"Feature","geometry":{"type":"Point","coordinates":[-47.40621055915978,-5.447211644110543]},"properties":{"municipio":"João Lisboa","geocodigo":"2105500","agrupamento":"Imperatriz"}},{"type":"Feature","geometry":{"type":"Point","coordinates":[-44.10918490074439,-2.51761071751428]},"properties":{"municipio":"Paço do Lumiar","geocodigo":"2107506","agrupamento":"Titara"}},{"type":"Feature","geometry":{"type":"Point","coordinates":[-44.79086973355495,-2.4495076579155937]},"properties":{"municipio":"Bequimão","geocodigo":"2101905","agrupamento":"Pinheiro"}},{"type":"Feature","geometry":{"type":"Point","coordinates":[-47.01635533332358,-5.592343443569331]},"properties":{"municipio":"Buritirana","geocodigo":"2102358","agrupamento":"Imperatriz"}},{"type":"Feature","geometry":{"type":"Point","coordinates":[-44.05263566175107,-2.9286838844712513]},"properties":{"municipio":"Cachoeira Grande","geocodigo":"2102374","agrupamento":"Titara"}},{"type":"Feature","geometry":{"type":"Point","coordinates":[-44.85426507752926,-4.663969865814794]},"properties":{"municipio":"Igarapé Grande","geocodigo":"2105203","agrupamento":"Santa Inês"}},{"type":"Feature","geometry":{"type":"Point","coordinates":[-44.60564095268927,-2.1344228332436646]},"properties":{"municipio":"Guimarães","geocodigo":"2104909","agrupamento":"Pinheiro"}},{"type":"Feature","geometry":{"type":"Point","coordinates":[-44.35214755219907,-3.3944927881723617]},"properties":{"municipio":"Itapecuru Mirim","geocodigo":"2105401","agrupamento":"Titara"}},{"type":"Feature","geometry":{"type":"Point","coordinates":[-45.453997093556204,-4.621899521497445]},"properties":{"municipio":"Marajá do Sena","geocodigo":"2106359","agrupamento":"Santa Inês"}},{"type":"Feature","geometry":{"type":"Point","coordinates":[-46.744575226938245,-5.570723784592789]},"properties":{"municipio":"Amarante do Maranhão","geocodigo":"2100600","agrupamento":"Imperatriz"}},{"type":"Feature","geometry":{"type":"Point","coordinates":[-46.8536314430564,-4.483567916994166]},"properties":{"municipio":"Bom Jesus das Selvas","geocodigo":"2102036","agrupamento":"Imperatriz"}},{"type":"Feature","geometry":{"type":"Point","coordinates":[-45.58410187879928,-4.330540003273773]},"properties":{"municipio":"Brejo de Areia","geocodigo":"2102150","agrupamento":"Santa Inês"}},{"type":"Feature","geometry":{"type":"Point","coordinates":[-46.45425272247928,-4.321407632976462]},"properties":{"municipio":"Buriticupu","geocodigo":"2102325","agrupamento":"Imperatriz"}},{"type":"Feature","geometry":{"type":"Point","coordinates":[-46.68200486914781,-6.962428883552955]},"properties":{"municipio":"Feira Nova do Maranhão","geocodigo":"2104073","agrupamento":"Balsas"}},{"type":"Feature","geometry":{"type":"Point","coordinates":[-44.380656181675874,-3.634445587445679]},"properties":{"municipio":"Cantanhede","geocodigo":"2102705","agrupamento":"Titara"}},{"type":"Feature","geometry":{"type":"Point","coordinates":[-46.15589341762053,-5.820154806387007]},"properties":{"municipio":"Grajaú","geocodigo":"2104800","agrupamento":"Imperatriz"}},{"type":"Feature","geometry":{"type":"Point","coordinates":[-44.331347944965394,-4.373002335956424]},"properties":{"municipio":"Peritoró","geocodigo":"2108454","agrupamento":"Codó"}},{"type":"Feature","geometry":{"type":"Point","coordinates":[-43.470164236748985,-4.629894815671732]},"properties":{"municipio":"Aldeias Altas","geocodigo":"2100303","agrupamento":"Codó"}},{"type":"Feature","geometry":{"type":"Point","coordinates":[-44.78246758540927,-4.228774944348557]},"properties":{"municipio":"Bacabal","geocodigo":"2101202","agrupamento":"Santa Inês"}},{"type":"Feature","geometry":{"type":"Point","coordinates":[-44.61672342563439,-3.264917921882153]},"properties":{"municipio":"Anajatuba","geocodigo":"2100709","agrupamento":"Titara"}},{"type":"Feature","geometry":{"type":"Point","coordinates":[-44.554543510482375,-7.220158495194821]},"properties":{"municipio":"Benedito Leite","geocodigo":"2101806","agrupamento":"Colinas"}},{"type":"Feature","geometry":{"type":"Point","coordinates":[-42.91398825067961,-3.9442997108156073]},"properties":{"municipio":"Buriti","geocodigo":"2102200","agrupamento":"Titara"}},{"type":"Feature","geometry":{"type":"Point","coordinates":[-42.7541158154059,-3.679861051449643]},"properties":{"municipio":"Brejo","geocodigo":"2102101","agrupamento":"Buriti dos Lopes (PI)"}},{"type":"Feature","geometry":{"type":"Point","coordinates":[-43.012828012428876,-4.255073013520689]},"properties":{"municipio":"Coelho Neto","geocodigo":"2103406","agrupamento":"Codó"}},{"type":"Feature","geometry":{"type":"Point","coordinates":[-44.24738784596912,-6.032146062334553]},"properties":{"municipio":"Colinas","geocodigo":"2103505","agrupamento":"Colinas"}},{"type":"Feature","geometry":{"type":"Point","coordinates":[-42.94480572553745,-4.150819990258018]},"properties":{"municipio":"Duque Bacelar","geocodigo":"2103901","agrupamento":"Titara"}},{"type":"Feature","geometry":{"type":"Point","coordinates":[-43.356315387913575,-3.7368227277950186]},"properties":{"municipio":"Chapadinha","geocodigo":"2103208","agrupamento":"Titara"}},{"type":"Feature","geometry":{"type":"Point","coordinates":[-47.4905996220632,-4.950064746016352]},"properties":{"municipio":"Açailândia","geocodigo":"2100055","agrupamento":"Imperatriz"}},{"type":"Feature","geometry":{"type":"Point","coordinates":[-45.039920529758774,-4.373340166381776]},"properties":{"municipio":"Bom Lugar","geocodigo":"2102077","agrupamento":"Santa Inês"}},{"type":"Feature","geometry":{"type":"Point","coordinates":[-42.83784963971904,-5.1075783668970764]},"properties":{"municipio":"Timon","geocodigo":"2112209","agrupamento":"Nazária (PI)"}},{"type":"Feature","geometry":{"type":"Point","coordinates":[-45.93363881726126,-9.110264958904299]},"properties":{"municipio":"Alto Parnaíba","geocodigo":"2100501","agrupamento":"Balsas"}},{"type":"Feature","geometry":{"type":"Point","coordinates":[-45.74793291157982,-8.473708545647538]},"properties":{"municipio":"Tasso Fragoso","geocodigo":"2112001","agrupamento":"Balsas"}},{"type":"Feature","geometry":{"type":"Point","coordinates":[-45.653986679013144,-3.278855018175237]},"properties":{"municipio":"Zé Doca","geocodigo":"2114007","agrupamento":"Santa Inês"}},{"type":"Feature","geometry":{"type":"Point","coordinates":[-44.88043013440192,-4.87671872533686]},"properties":{"municipio":"Esperantinópolis","geocodigo":"2104008","agrupamento":"Colinas"}},{"type":"Feature","geometry":{"type":"Point","coordinates":[-44.81718678562545,-7.0842528376551455]},"properties":{"municipio":"São Félix de Balsas","geocodigo":"2110807","agrupamento":"Balsas"}},{"type":"Feature","geometry":{"type":"Point","coordinates":[-43.34604720755697,-4.879521642171202]},"properties":{"municipio":"Caxias","geocodigo":"2103000","agrupamento":"Codó"}},{"type":"Feature","geometry":{"type":"Point","coordinates":[-45.96084520411283,-2.0474612412621847]},"properties":{"municipio":"Maracaçumé","geocodigo":"2106326","agrupamento":"Pinheiro"}},{"type":"Feature","geometry":{"type":"Point","coordinates":[-46.071332728577126,-1.8783039362200975]},"properties":{"municipio":"Junco do Maranhão","geocodigo":"2105658","agrupamento":"Pinheiro"}},{"type":"Feature","geometry":{"type":"Point","coordinates":[-45.89840264081726,-1.3304011984029607]},"properties":{"municipio":"Luís Domingues","geocodigo":"2106201","agrupamento":"Pinheiro"}},{"type":"Feature","geometry":{"type":"Point","coordinates":[-45.85752712796716,-2.2410739352790605]},"properties":{"municipio":"Maranhãozinho","geocodigo":"2106375","agrupamento":"Pinheiro"}},{"type":"Feature","geometry":{"type":"Point","coordinates":[-46.258024984267436,-3.5552112240760065]},"properties":{"municipio":"São João do Carú","geocodigo":"2111029","agrupamento":"Santa Inês"}},{"type":"Feature","geometry":{"type":"Point","coordinates":[-45.1742793001225,-3.28989609615965]},"properties":{"municipio":"Penalva","geocodigo":"2108306","agrupamento":"Pinheiro"}},{"type":"Feature","geometry":{"type":"Point","coordinates":[-45.24995011150778,-3.484452061141481]},"properties":{"municipio":"Monção","geocodigo":"2106904","agrupamento":"Santa Inês"}},{"type":"Feature","geometry":{"type":"Point","coordinates":[-45.11873278627935,-1.8552882026426112]},"properties":{"municipio":"Serrano do Maranhão","geocodigo":"2111789","agrupamento":"Pinheiro"}},{"type":"Feature","geometry":{"type":"Point","coordinates":[-45.306697363667936,-2.220360258223836]},"properties":{"municipio":"Turilândia","geocodigo":"2112456","agrupamento":"Pinheiro"}},{"type":"Feature","geometry":{"type":"Point","coordinates":[-45.00223358518583,-3.2110459260305064]},"properties":{"municipio":"Viana","geocodigo":"2112803","agrupamento":"Pinheiro"}},{"type":"Feature","geometry":{"type":"Point","coordinates":[-45.37045163804182,-1.6655963664952345]},"properties":{"municipio":"Turiaçu","geocodigo":"2112407","agrupamento":"Pinheiro"}},{"type":"Feature","geometry":{"type":"Point","coordinates":[-45.70244340759536,-2.806268865707407]},"properties":{"municipio":"Nova Olinda do Maranhão","geocodigo":"2107357","agrupamento":"Santa Inês"}},{"type":"Feature","geometry":{"type":"Point","coordinates":[-45.77512650533881,-2.5442105582438965]},"properties":{"municipio":"Santa Luzia do Paruá","geocodigo":"2110039","agrupamento":"Santa Inês"}},{"type":"Feature","geometry":{"type":"Point","coordinates":[-46.260233876352,-7.1199887550029715]},"properties":{"municipio":"Nova Colinas","geocodigo":"2107258","agrupamento":"Balsas"}},{"type":"Feature","geometry":{"type":"Point","coordinates":[-45.63501009706329,-3.673477070269301]},"properties":{"municipio":"Tufilândia","geocodigo":"2112274","agrupamento":"Santa Inês"}},{"type":"Feature","geometry":{"type":"Point","coordinates":[-45.24615173711112,-4.289097280545056]},"properties":{"municipio":"Vitorino Freire","geocodigo":"2113009","agrupamento":"Santa Inês"}},{"type":"Feature","geometry":{"type":"Point","coordinates":[-45.24031967447796,-4.4478776695012545]},"properties":{"municipio":"Paulo Ramos","geocodigo":"2108108","agrupamento":"Santa Inês"}},{"type":"Feature","geometry":{"type":"Point","coordinates":[-44.326037184035506,-3.137518055828607]},"properties":{"municipio":"Santa Rita","geocodigo":"2110203","agrupamento":"Titara"}},{"type":"Feature","geometry":{"type":"Point","coordinates":[-44.996188623090916,-2.99968482220238]},"properties":{"municipio":"Olinda Nova do Maranhão","geocodigo":"2107456","agrupamento":"Pinheiro"}},{"type":"Feature","geometry":{"type":"Point","coordinates":[-44.89743525128584,-2.6465636473977887]},"properties":{"municipio":"Palmeirândia","geocodigo":"2107605","agrupamento":"Pinheiro"}},{"type":"Feature","geometry":{"type":"Point","coordinates":[-46.70210703976919,-5.881177605616978]},"properties":{"municipio":"Sítio Novo","geocodigo":"2111805","agrupamento":"Imperatriz"}},{"type":"Feature","geometry":{"type":"Point","coordinates":[-44.671013542361564,-4.377137843626373]},"properties":{"municipio":"São Luís Gonzaga do Maranhão","geocodigo":"2111409","agrupamento":"Santa Inês"}},{"type":"Feature","geometry":{"type":"Point","coordinates":[-45.47863404212076,-7.02201423084047]},"properties":{"municipio":"São Raimundo das Mangabeiras","geocodigo":"2111607","agrupamento":"Balsas"}},{"type":"Feature","geometry":{"type":"Point","coordinates":[-45.23873888397029,-4.037194505934539]},"properties":{"municipio":"Satubinha","geocodigo":"2111722","agrupamento":"Santa Inês"}},{"type":"Feature","geometry":{"type":"Point","coordinates":[-47.29038094524114,-5.444857397285667]},"properties":{"municipio":"Senador La Rocque","geocodigo":"2111763","agrupamento":"Imperatriz"}},{"type":"Feature","geometry":{"type":"Point","coordinates":[-44.61645660232496,-4.568241807003281]},"properties":{"municipio":"Trizidela do Vale","geocodigo":"2112233","agrupamento":"Codó"}},{"type":"Feature","geometry":{"type":"Point","coordinates":[-44.647138610223514,-5.260224975934693]},"properties":{"municipio":"Tuntum","geocodigo":"2112308","agrupamento":"Colinas"}},{"type":"Feature","geometry":{"type":"Point","coordinates":[-43.91745092881286,-3.545370496243092]},"properties":{"municipio":"Vargem Grande","geocodigo":"2112704","agrupamento":"Titara"}},{"type":"Feature","geometry":{"type":"Point","coordinates":[-44.69740938490407,-4.987196137450476]},"properties":{"municipio":"Joselândia","geocodigo":"2105609","agrupamento":"Colinas"}},{"type":"Feature","geometry":{"type":"Point","coordinates":[-45.056685771856294,-4.6076962795916]},"properties":{"municipio":"Lago do Junco","geocodigo":"2105807","agrupamento":"Santa Inês"}},{"type":"Feature","geometry":{"type":"Point","coordinates":[-44.937903606441274,-4.042655020670027]},"properties":{"municipio":"Lago Verde","geocodigo":"2105906","agrupamento":"Santa Inês"}},{"type":"Feature","geometry":{"type":"Point","coordinates":[-44.24752530884378,-2.9385182077183525]},"properties":{"municipio":"Rosário","geocodigo":"2109601","agrupamento":"Titara"}},{"type":"Feature","geometry":{"type":"Point","coordinates":[-44.58543145816917,-5.052304945042918]},"properties":{"municipio":"São José dos Basílios","geocodigo":"2111250","agrupamento":"Colinas"}},{"type":"Feature","geometry":{"type":"Point","coordinates":[-44.02706435645632,-3.4063501340837017]},"properties":{"municipio":"Presidente Vargas","geocodigo":"2109304","agrupamento":"Titara"}},{"type":"Feature","geometry":{"type":"Point","coordinates":[-44.85497759994325,-2.577772411069239]},"properties":{"municipio":"Peri Mirim","geocodigo":"2108405","agrupamento":"Pinheiro"}},{"type":"Feature","geometry":{"type":"Point","coordinates":[-44.559113823327095,-5.498061469685264]},"properties":{"municipio":"Santa Filomena do Maranhão","geocodigo":"2109759","agrupamento":"Colinas"}},{"type":"Feature","geometry":{"type":"Point","coordinates":[-47.067324178307594,-5.833009844927129]},"properties":{"municipio":"Montes Altos","geocodigo":"2107001","agrupamento":"Imperatriz"}},{"type":"Feature","geometry":{"type":"Point","coordinates":[-45.11913679361018,-4.137536613010117]},"properties":{"municipio":"Olho d''Água das Cunhãs","geocodigo":"2107407","agrupamento":"Santa Inês"}},{"type":"Feature","geometry":{"type":"Point","coordinates":[-44.992706931679706,-5.022721542051155]},"properties":{"municipio":"São Roberto","geocodigo":"2111672","agrupamento":"Colinas"}},{"type":"Feature","geometry":{"type":"Point","coordinates":[-44.05532737334375,-5.260032668901811]},"properties":{"municipio":"Senador Alexandre Costa","geocodigo":"2111748","agrupamento":"Codó"}},{"type":"Feature","geometry":{"type":"Point","coordinates":[-43.94053151231656,-4.256292960783525]},"properties":{"municipio":"Timbiras","geocodigo":"2112100","agrupamento":"Codó"}},{"type":"Feature","geometry":{"type":"Point","coordinates":[-48.1380626430627,-5.1819529266815385]},"properties":{"municipio":"Vila Nova dos Martírios","geocodigo":"2112852","agrupamento":"Imperatriz"}},{"type":"Feature","geometry":{"type":"Point","coordinates":[-47.53030981619091,-4.455591877015309]},"properties":{"municipio":"Itinga do Maranhão","geocodigo":"2105427","agrupamento":"Imperatriz"}},{"type":"Feature","geometry":{"type":"Point","coordinates":[-44.5812699558351,-3.565874449852826]},"properties":{"municipio":"Miranda do Norte","geocodigo":"2106755","agrupamento":"Titara"}},{"type":"Feature","geometry":{"type":"Point","coordinates":[-44.359174722651254,-4.870530700882979]},"properties":{"municipio":"Santo Antônio dos Lopes","geocodigo":"2110302","agrupamento":"Codó"}},{"type":"Feature","geometry":{"type":"Point","coordinates":[-47.388880589761484,-5.932784063905957]},"properties":{"municipio":"Ribamar Fiquene","geocodigo":"2109551","agrupamento":"Imperatriz"}},{"type":"Feature","geometry":{"type":"Point","coordinates":[-43.524331049985484,-3.3266159176570067]},"properties":{"municipio":"São Benedito do Rio Preto","geocodigo":"2110401","agrupamento":"Titara"}},{"type":"Feature","geometry":{"type":"Point","coordinates":[-47.38699674861739,-5.124350628008373]},"properties":{"municipio":"São Francisco do Brejão","geocodigo":"2110856","agrupamento":"Imperatriz"}},{"type":"Feature","geometry":{"type":"Point","coordinates":[-44.46809328550764,-4.0315279311896015]},"properties":{"municipio":"São Mateus do Maranhão","geocodigo":"2111508","agrupamento":"Codó"}},{"type":"Feature","geometry":{"type":"Point","coordinates":[-48.42886161864956,-5.083524062879828]},"properties":{"municipio":"São Pedro da Água Branca","geocodigo":"2111532","agrupamento":"Imperatriz"}},{"type":"Feature","geometry":{"type":"Point","coordinates":[-45.07718029959289,-5.106059484144489]},"properties":{"municipio":"São Raimundo do Doca Bezerra","geocodigo":"2111631","agrupamento":"Colinas"}},{"type":"Feature","geometry":{"type":"Point","coordinates":[-46.52980304850508,-6.825245856956084]},"properties":{"municipio":"São Pedro dos Crentes","geocodigo":"2111573","agrupamento":"Balsas"}},{"type":"Feature","geometry":{"type":"Point","coordinates":[-44.88010263492948,-2.8923821126533094]},"properties":{"municipio":"São Vicente Ferrer","geocodigo":"2111706","agrupamento":"Pinheiro"}},{"type":"Feature","geometry":{"type":"Point","coordinates":[-44.87212981235818,-3.4672344613354995]},"properties":{"municipio":"Vitória do Mearim","geocodigo":"2112902","agrupamento":"Titara"}},{"type":"Feature","geometry":{"type":"Point","coordinates":[-42.20466735020295,-3.396428081173279]},"properties":{"municipio":"Magalhães de Almeida","geocodigo":"2106300","agrupamento":"Buriti dos Lopes (PI)"}},{"type":"Feature","geometry":{"type":"Point","coordinates":[-43.11634213784489,-3.6199530577490826]},"properties":{"municipio":"Mata Roma","geocodigo":"2106409","agrupamento":"Titara"}},{"type":"Feature","geometry":{"type":"Point","coordinates":[-43.20436058732283,-5.524011919632449]},"properties":{"municipio":"Matões","geocodigo":"2106607","agrupamento":"Nazária (PI)"}},{"type":"Feature","geometry":{"type":"Point","coordinates":[-44.046009279629246,-6.735614502311526]},"properties":{"municipio":"Nova Iorque","geocodigo":"2107308","agrupamento":"Colinas"}},{"type":"Feature","geometry":{"type":"Point","coordinates":[-42.41397992258566,-3.1120857663699235]},"properties":{"municipio":"Santana do Maranhão","geocodigo":"2110237","agrupamento":"Buriti dos Lopes (PI)"}},{"type":"Feature","geometry":{"type":"Point","coordinates":[-44.084539348646395,-6.5988562198421965]},"properties":{"municipio":"Pastos Bons","geocodigo":"2108009","agrupamento":"Colinas"}},{"type":"Feature","geometry":{"type":"Point","coordinates":[-44.37109209035691,-6.369512589371669]},"properties":{"municipio":"Mirador","geocodigo":"2106706","agrupamento":"Colinas"}},{"type":"Feature","geometry":{"type":"Point","coordinates":[-44.189999146017975,-6.480450730497804]},"properties":{"municipio":"Sucupira do Norte","geocodigo":"2111904","agrupamento":"Colinas"}},{"type":"Feature","geometry":{"type":"Point","coordinates":[-43.54516922184676,-6.41622969122184]},"properties":{"municipio":"Sucupira do Riachão","geocodigo":"2111953","agrupamento":"Colinas"}},{"type":"Feature","geometry":{"type":"Point","coordinates":[-43.32519097586477,-4.131860308069738]},"properties":{"municipio":"Afonso Cunha","geocodigo":"2100105","agrupamento":"Codó"}},{"type":"Feature","geometry":{"type":"Point","coordinates":[-44.41850224365149,-2.406669154249894]},"properties":{"municipio":"Alcântara","geocodigo":"2100204","agrupamento":"Pinheiro"}},{"type":"Feature","geometry":{"type":"Point","coordinates":[-44.90092051405862,-6.151217473440906]},"properties":{"municipio":"Fernando Falcão","geocodigo":"2104081","agrupamento":"Colinas"}},{"type":"Feature","geometry":{"type":"Point","coordinates":[-43.40055607095183,-3.2091209306258364]},"properties":{"municipio":"Urbano Santos","geocodigo":"2112605","agrupamento":"Titara"}},{"type":"Feature","geometry":{"type":"Point","coordinates":[-46.01322712167498,-1.6759376305491145]},"properties":{"municipio":"Amapá do Maranhão","geocodigo":"2100550","agrupamento":"Pinheiro"}},{"type":"Feature","geometry":{"type":"Point","coordinates":[-45.140010297413525,-1.7257131489104416]},"properties":{"municipio":"Bacuri","geocodigo":"2101301","agrupamento":"Pinheiro"}},{"type":"Feature","geometry":{"type":"Point","coordinates":[-45.252559798895724,-3.7411569481299014]},"properties":{"municipio":"Bela Vista do Maranhão","geocodigo":"2101772","agrupamento":"Santa Inês"}},{"type":"Feature","geometry":{"type":"Point","coordinates":[-45.66551586060671,-2.950677709078163]},"properties":{"municipio":"Araguanã","geocodigo":"2100873","agrupamento":"Santa Inês"}},{"type":"Feature","geometry":{"type":"Point","coordinates":[-45.076822263075705,-1.5243508512807873]},"properties":{"municipio":"Apicum-Açu","geocodigo":"2100832","agrupamento":"Pinheiro"}},{"type":"Feature","geometry":{"type":"Point","coordinates":[-45.84593301542683,-3.6677537775625373]},"properties":{"municipio":"Alto Alegre do Pindaré","geocodigo":"2100477","agrupamento":"Santa Inês"}},{"type":"Feature","geometry":{"type":"Point","coordinates":[-43.50837577319981,-3.160393832687468]},"properties":{"municipio":"Belágua","geocodigo":"2101731","agrupamento":"Titara"}},{"type":"Feature","geometry":{"type":"Point","coordinates":[-45.470099305122645,-4.167476512925976]},"properties":{"municipio":"Altamira do Maranhão","geocodigo":"2100402","agrupamento":"Santa Inês"}},{"type":"Feature","geometry":{"type":"Point","coordinates":[-46.040352152890705,-7.526610142020343]},"properties":{"municipio":"Balsas","geocodigo":"2101400","agrupamento":"Balsas"}},{"type":"Feature","geometry":{"type":"Point","coordinates":[-46.00870763667023,-4.8882214680201646]},"properties":{"municipio":"Arame","geocodigo":"2100956","agrupamento":"Imperatriz"}},{"type":"Feature","geometry":{"type":"Point","coordinates":[-45.250484017716545,-5.497066535751481]},"properties":{"municipio":"Barra do Corda","geocodigo":"2101608","agrupamento":"Colinas"}},{"type":"Feature","geometry":{"type":"Point","coordinates":[-44.77710324606946,-3.4553917099715767]},"properties":{"municipio":"Arari","geocodigo":"2101004","agrupamento":"Titara"}},{"type":"Feature","geometry":{"type":"Point","coordinates":[-44.453090565421185,-4.211020035935386]},"properties":{"municipio":"Alto Alegre do Maranhão","geocodigo":"2100436","agrupamento":"Codó"}},{"type":"Feature","geometry":{"type":"Point","coordinates":[-44.314288767461534,-2.976484081627708]},"properties":{"municipio":"Bacabeira","geocodigo":"2101251","agrupamento":"Titara"}},{"type":"Feature","geometry":{"type":"Point","coordinates":[-44.7380253348694,-2.7077528906955344]},"properties":{"municipio":"Bacurituba","geocodigo":"2101350","agrupamento":"Pinheiro"}},{"type":"Feature","geometry":{"type":"Point","coordinates":[-44.05647625165997,-2.8366304035130216]},"properties":{"municipio":"Axixá","geocodigo":"2101103","agrupamento":"Titara"}},{"type":"Feature","geometry":{"type":"Point","coordinates":[-43.10938027208351,-3.67433443103637]},"properties":{"municipio":"Anapurus","geocodigo":"2100808","agrupamento":"Titara"}},{"type":"Feature","geometry":{"type":"Point","coordinates":[-43.02694325914595,-6.756428408857633]},"properties":{"municipio":"Barão de Grajaú","geocodigo":"2101509","agrupamento":"Colinas"}},{"type":"Feature","geometry":{"type":"Point","coordinates":[-47.46707770731883,-5.513815718625646]},"properties":{"municipio":"Imperatriz","geocodigo":"2105302","agrupamento":"Imperatriz"}},{"type":"Feature","geometry":{"type":"Point","coordinates":[-44.8313137616873,-2.1968338261310945]},"properties":{"municipio":"Central do Maranhão","geocodigo":"2103125","agrupamento":"Pinheiro"}},{"type":"Feature","geometry":{"type":"Point","coordinates":[-44.06174787104731,-2.7748397117223718]},"properties":{"municipio":"Icatu","geocodigo":"2105104","agrupamento":"Titara"}},{"type":"Feature","geometry":{"type":"Point","coordinates":[-44.12503589030421,-4.131409077611721]},"properties":{"municipio":"Coroatá","geocodigo":"2103604","agrupamento":"Codó"}},{"type":"Feature","geometry":{"type":"Point","coordinates":[-44.15161903342698,-5.732245664687054]},"properties":{"municipio":"Fortuna","geocodigo":"2104206","agrupamento":"Colinas"}},{"type":"Feature","geometry":{"type":"Point","coordinates":[-47.39145059679491,-5.525645087444128]},"properties":{"municipio":"Davinópolis","geocodigo":"2103752","agrupamento":"Imperatriz"}},{"type":"Feature","geometry":{"type":"Point","coordinates":[-44.3279453671243,-4.729180389389895]},"properties":{"municipio":"Capinzal do Norte","geocodigo":"2102754","agrupamento":"Codó"}},{"type":"Feature","geometry":{"type":"Point","coordinates":[-47.36581922359493,-6.173839053505091]},"properties":{"municipio":"Campestre do Maranhão","geocodigo":"2102556","agrupamento":"Imperatriz"}},{"type":"Feature","geometry":{"type":"Point","coordinates":[-47.783824463165764,-5.177218383939403]},"properties":{"municipio":"Cidelândia","geocodigo":"2103257","agrupamento":"Imperatriz"}},{"type":"Feature","geometry":{"type":"Point","coordinates":[-44.07028430274591,-5.472306316636208]},"properties":{"municipio":"Governador Luiz Rocha","geocodigo":"2104628","agrupamento":"Colinas"}},{"type":"Feature","geometry":{"type":"Point","coordinates":[-43.89257001363994,-4.456979730728081]},"properties":{"municipio":"Codó","geocodigo":"2103307","agrupamento":"Codó"}},{"type":"Feature","geometry":{"type":"Point","coordinates":[-44.27046337485756,-5.024785476515386]},"properties":{"municipio":"Governador Archer","geocodigo":"2104503","agrupamento":"Codó"}},{"type":"Feature","geometry":{"type":"Point","coordinates":[-46.19029725264641,-6.44333606922293]},"properties":{"municipio":"Formosa da Serra Negra","geocodigo":"2104099","agrupamento":"Balsas"}},{"type":"Feature","geometry":{"type":"Point","coordinates":[-47.443960361545955,-6.557562899692008]},"properties":{"municipio":"Estreito","geocodigo":"2104057","agrupamento":"Imperatriz"}},{"type":"Feature","geometry":{"type":"Point","coordinates":[-44.43947705263196,-5.040523280688754]},"properties":{"municipio":"Dom Pedro","geocodigo":"2103802","agrupamento":"Colinas"}},{"type":"Feature","geometry":{"type":"Point","coordinates":[-44.466692157149645,-4.520039842679887]},"properties":{"municipio":"Lima Campos","geocodigo":"2106003","agrupamento":"Codó"}},{"type":"Feature","geometry":{"type":"Point","coordinates":[-45.385116129210964,-4.992429888226607]},"properties":{"municipio":"Lagoa Grande do Maranhão","geocodigo":"2105963","agrupamento":"Santa Inês"}},{"type":"Feature","geometry":{"type":"Point","coordinates":[-44.22481900390007,-5.819350777091524]},"properties":{"municipio":"Jatobá","geocodigo":"2105450","agrupamento":"Colinas"}},{"type":"Feature","geometry":{"type":"Point","coordinates":[-45.63606724664538,-5.369571820513032]},"properties":{"municipio":"Jenipapo dos Vieiras","geocodigo":"2105476","agrupamento":"Colinas"}},{"type":"Feature","geometry":{"type":"Point","coordinates":[-45.13475200050743,-4.558563571946032]},"properties":{"municipio":"Lago da Pedra","geocodigo":"2105708","agrupamento":"Santa Inês"}},{"type":"Feature","geometry":{"type":"Point","coordinates":[-44.97997468933571,-4.6131790929898076]},"properties":{"municipio":"Lago dos Rodrigues","geocodigo":"2105948","agrupamento":"Santa Inês"}},{"type":"Feature","geometry":{"type":"Point","coordinates":[-45.13894962271603,-7.0864018013933405]},"properties":{"municipio":"Loreto","geocodigo":"2106102","agrupamento":"Balsas"}},{"type":"Feature","geometry":{"type":"Point","coordinates":[-43.52784680509098,-6.047650905844925]},"properties":{"municipio":"Lagoa do Mato","geocodigo":"2105922","agrupamento":"Colinas"}},{"type":"Feature","geometry":{"type":"Point","coordinates":[-45.30111552869891,-2.2339535117204266]},"properties":{"municipio":"Santa Helena","geocodigo":"2109809","agrupamento":"Pinheiro"}},{"type":"Feature","geometry":{"type":"Point","coordinates":[-44.5955883647182,-1.8623611684366406]},"properties":{"municipio":"Porto Rico do Maranhão","geocodigo":"2109056","agrupamento":"Pinheiro"}},{"type":"Feature","geometry":{"type":"Point","coordinates":[-45.339020646756794,-3.614641571565503]},"properties":{"municipio":"Pindaré-Mirim","geocodigo":"2108504","agrupamento":"Santa Inês"}},{"type":"Feature","geometry":{"type":"Point","coordinates":[-45.36309365357325,-2.5917961491390304]},"properties":{"municipio":"Presidente Sarney","geocodigo":"2109270","agrupamento":"Pinheiro"}},{"type":"Feature","geometry":{"type":"Point","coordinates":[-45.38265075209381,-3.662779127725459]},"properties":{"municipio":"Santa Inês","geocodigo":"2109908","agrupamento":"Santa Inês"}},{"type":"Feature","geometry":{"type":"Point","coordinates":[-45.34862256325262,-2.969163331848622]},"properties":{"municipio":"Pedro do Rosário","geocodigo":"2108256","agrupamento":"Pinheiro"}},{"type":"Feature","geometry":{"type":"Point","coordinates":[-44.07142004816138,-2.9276789583860365]},"properties":{"municipio":"Presidente Juscelino","geocodigo":"2109205","agrupamento":"Titara"}},{"type":"Feature","geometry":{"type":"Point","coordinates":[-47.05658817600703,-6.465055342824907]},"properties":{"municipio":"São João do Paraíso","geocodigo":"2111052","agrupamento":"Imperatriz"}},{"type":"Feature","geometry":{"type":"Point","coordinates":[-44.49237680144243,-5.297528105019221]},"properties":{"municipio":"Presidente Dutra","geocodigo":"2109106","agrupamento":"Colinas"}},{"type":"Feature","geometry":{"type":"Point","coordinates":[-46.62209188390911,-7.362144629275211]},"properties":{"municipio":"Riachão","geocodigo":"2109502","agrupamento":"Balsas"}},{"type":"Feature","geometry":{"type":"Point","coordinates":[-44.94261864501103,-4.751104499667338]},"properties":{"municipio":"Poção de Pedras","geocodigo":"2108900","agrupamento":"Santa Inês"}},{"type":"Feature","geometry":{"type":"Point","coordinates":[-44.03645314891328,-2.8659014652893413]},"properties":{"municipio":"Morros","geocodigo":"2107100","agrupamento":"Titara"}},{"type":"Feature","geometry":{"type":"Point","coordinates":[-44.10320761287879,-2.442655433753994]},"properties":{"municipio":"Raposa","geocodigo":"2109452","agrupamento":"Titara"}},{"type":"Feature","geometry":{"type":"Point","coordinates":[-44.840041345526366,-2.700049086800454]},"properties":{"municipio":"São Bento","geocodigo":"2110500","agrupamento":"Pinheiro"}},{"type":"Feature","geometry":{"type":"Point","coordinates":[-44.797611033580885,-2.958431954517789]},"properties":{"municipio":"São João Batista","geocodigo":"2111003","agrupamento":"Pinheiro"}},{"type":"Feature","geometry":{"type":"Point","coordinates":[-47.39547756623658,-6.343665943940462]},"properties":{"municipio":"Porto Franco","geocodigo":"2109007","agrupamento":"Imperatriz"}},{"type":"Feature","geometry":{"type":"Point","coordinates":[-44.22921077239574,-3.725940914807743]},"properties":{"municipio":"Pirapemas","geocodigo":"2108801","agrupamento":"Titara"}},{"type":"Feature","geometry":{"type":"Point","coordinates":[-44.59902939596181,-4.571210873779492]},"properties":{"municipio":"Pedreiras","geocodigo":"2108207","agrupamento":"Codó"}},{"type":"Feature","geometry":{"type":"Point","coordinates":[-44.05812033316098,-2.5538389590390738]},"properties":{"municipio":"São José de Ribamar","geocodigo":"2111201","agrupamento":"Titara"}},{"type":"Feature","geometry":{"type":"Point","coordinates":[-43.91149553741592,-3.467584349674907]},"properties":{"municipio":"Nina Rodrigues","geocodigo":"2107209","agrupamento":"Titara"}},{"type":"Feature","geometry":{"type":"Point","coordinates":[-44.385200929712816,-5.580938072210094]},"properties":{"municipio":"São Domingos do Maranhão","geocodigo":"2110708","agrupamento":"Colinas"}},{"type":"Feature","geometry":{"type":"Point","coordinates":[-44.5549604361568,-3.6295890172731435]},"properties":{"municipio":"Matões do Norte","geocodigo":"2106631","agrupamento":"Titara"}},{"type":"Feature","geometry":{"type":"Point","coordinates":[-45.34654848882612,-7.140879484014081]},"properties":{"municipio":"Sambaíba","geocodigo":"2109700","agrupamento":"Balsas"}},{"type":"Feature","geometry":{"type":"Point","coordinates":[-43.811233552616756,-5.1159865701932]},"properties":{"municipio":"São João do Soter","geocodigo":"2111078","agrupamento":"Codó"}},{"type":"Feature","geometry":{"type":"Point","coordinates":[-44.784731766993986,-2.0671738658700574]},"properties":{"municipio":"Mirinzal","geocodigo":"2106805","agrupamento":"Pinheiro"}},{"type":"Feature","geometry":{"type":"Point","coordinates":[-44.64451133478762,-6.812386827157954]},"properties":{"municipio":"São Domingos do Azeitão","geocodigo":"2110658","agrupamento":"Colinas"}},{"type":"Feature","geometry":{"type":"Point","coordinates":[-43.77817890878099,-6.178724196631186]},"properties":{"municipio":"Passagem Franca","geocodigo":"2107902","agrupamento":"Colinas"}},{"type":"Feature","geometry":{"type":"Point","coordinates":[-43.106966948700794,-5.683886684143635]},"properties":{"municipio":"Parnarama","geocodigo":"2107803","agrupamento":"Nazária (PI)"}},{"type":"Feature","geometry":{"type":"Point","coordinates":[-43.70572973621849,-6.4963024616680904]},"properties":{"municipio":"São João dos Patos","geocodigo":"2111102","agrupamento":"Colinas"}},{"type":"Feature","geometry":{"type":"Point","coordinates":[-42.42313501238273,-3.368589870608433]},"properties":{"municipio":"São Bernardo","geocodigo":"2110609","agrupamento":"Buriti dos Lopes (PI)"}},{"type":"Feature","geometry":{"type":"Point","coordinates":[-43.989588654715654,-6.4319731009037335]},"properties":{"municipio":"Paraibano","geocodigo":"2107704","agrupamento":"Colinas"}},{"type":"Feature","geometry":{"type":"Point","coordinates":[-42.857892244045956,-6.247667467881903]},"properties":{"municipio":"São Francisco do Maranhão","geocodigo":"2110906","agrupamento":"Colinas"}},{"type":"Feature","geometry":{"type":"Point","coordinates":[-42.60727240868482,-3.582184917619594]},"properties":{"municipio":"Milagres do Maranhão","geocodigo":"2106672","agrupamento":"Buriti dos Lopes (PI)"}},{"type":"Feature","geometry":{"type":"Point","coordinates":[-42.56054814503617,-3.498522849686932]},"properties":{"municipio":"Santa Quitéria do Maranhão","geocodigo":"2110104","agrupamento":"Buriti dos Lopes (PI)"}},{"type":"Feature","geometry":{"type":"Point","coordinates":[-42.11675674210798,-2.837950040142033]},"properties":{"municipio":"Água Doce do Maranhão","geocodigo":"2100154","agrupamento":"Buriti dos Lopes (PI)"}},{"type":"Feature","geometry":{"type":"Point","coordinates":[-43.461326284685306,-2.5977137593380375]},"properties":{"municipio":"Humberto de Campos","geocodigo":"2105005","agrupamento":"Titara"}},{"type":"Feature","geometry":{"type":"Point","coordinates":[-43.441819558021784,-2.509390331591628]},"properties":{"municipio":"Primeira Cruz","geocodigo":"2109403","agrupamento":"Titara"}},{"type":"Feature","geometry":{"type":"Point","coordinates":[-42.274510440627935,-2.7627508824922526]},"properties":{"municipio":"Tutóia","geocodigo":"2112506","agrupamento":"Buriti dos Lopes (PI)"}},{"type":"Feature","geometry":{"type":"Point","coordinates":[-42.82672722301062,-2.7483614706180926]},"properties":{"municipio":"Barreirinhas","geocodigo":"2101707","agrupamento":"Titara"}},{"type":"Feature","geometry":{"type":"Point","coordinates":[-42.540458795456196,-2.7205922736999737]},"properties":{"municipio":"Paulino Neves","geocodigo":"2108058","agrupamento":"Buriti dos Lopes (PI)"}},{"type":"Feature","geometry":{"type":"Point","coordinates":[-43.25756300784592,-2.5017961772506507]},"properties":{"municipio":"Santo Amaro do Maranhão","geocodigo":"2110278","agrupamento":"Titara"}},{"type":"Feature","geometry":{"type":"Point","coordinates":[-41.90330007524144,-2.8910516955045678]},"properties":{"municipio":"Araioses","geocodigo":"2100907","agrupamento":"Buriti dos Lopes (PI)"}},{"type":"Feature","geometry":{"type":"Point","coordinates":[-44.30269322361376,-2.52820742205455]},"properties":{"municipio":"São Luís","geocodigo":"2111300","agrupamento":"Titara"}}]}